{
  "type": "FeatureCollection",
  "features": [
    {
      "type": "Feature",
      "properties": {
        "norad_id": 34492,
        "name": "IRIDIUM 33 DEB",
        "group": "iridium-33-debris",
        "lat": -56.92255104438716,
        "lon": -29.21930607468768,
        "alt_km": 728.2507099723653,
        "timestamp": "2025-12-08T19:31:49.192724+00:00",
        "meta_object_name": "IRIDIUM 33 DEB",
        "meta_object_id": "1997-051GH",
        "meta_epoch": "2025-12-07T23:50:44.784960",
        "meta_mean_motion": 14.25534668,
        "meta_eccentricity": 0.0189621,
        "meta_inclination": 86.4724,
        "meta_ra_of_asc_node": 336.5463,
        "meta_arg_of_pericenter": 253.6464,
        "meta_mean_anomaly": 161.0806,
        "meta_ephemeris_type": 0,
        "meta_classification_type": "U",
        "meta_norad_cat_id": 34492,
        "meta_element_set_no": 999,
        "meta_rev_at_epoch": 84991,
        "meta_bstar": 0.0068533726,
        "meta_mean_motion_dot": 0.00019616,
        "meta_mean_motion_ddot": 0,
        "tle_line1": "1 34492U 97051GH  25341.99357390  .00019616  00000+0  68534-2 0  9994",
        "tle_line2": "2 34492  86.4724 336.5463 0189621 253.6464 161.0806 14.25534668849919"
      },
      "geometry": {
        "type": "Point",
        "coordinates": [
          -29.21930607468768,
          -56.92255104438716
        ]
      }
    },
    {
      "type": "Feature",
      "properties": {
        "norad_id": 34497,
        "name": "IRIDIUM 33 DEB",
        "group": "iridium-33-debris",
        "lat": 25.318510208720355,
        "lon": -127.6857974864693,
        "alt_km": 853.7159883115419,
        "timestamp": "2025-12-08T19:31:49.192733+00:00",
        "meta_object_name": "IRIDIUM 33 DEB",
        "meta_object_id": "1997-051GN",
        "meta_epoch": "2025-12-08T05:36:30.454848",
        "meta_mean_motion": 14.27433857,
        "meta_eccentricity": 0.00792669,
        "meta_inclination": 86.2781,
        "meta_ra_of_asc_node": 54.3266,
        "meta_arg_of_pericenter": 354.2573,
        "meta_mean_anomaly": 60.9681,
        "meta_ephemeris_type": 0,
        "meta_classification_type": "U",
        "meta_norad_cat_id": 34497,
        "meta_element_set_no": 999,
        "meta_rev_at_epoch": 86819,
        "meta_bstar": 0.00099948943,
        "meta_mean_motion_dot": 2.553e-05,
        "meta_mean_motion_ddot": 0,
        "tle_line1": "1 34497U 97051GN  25342.23368582  .00002553  00000+0  99949-3 0  9999",
        "tle_line2": "2 34497  86.2781  54.3266 0079266 354.2573  60.9681 14.27433857868192"
      },
      "geometry": {
        "type": "Point",
        "coordinates": [
          -127.6857974864693,
          25.318510208720355
        ]
      }
    },
    {
      "type": "Feature",
      "properties": {
        "norad_id": 34508,
        "name": "IRIDIUM 33 DEB",
        "group": "iridium-33-debris",
        "lat": 22.489415332941107,
        "lon": -77.19811464635063,
        "alt_km": 722.1935492908678,
        "timestamp": "2025-12-08T19:31:49.192742+00:00",
        "meta_object_name": "IRIDIUM 33 DEB",
        "meta_object_id": "1997-051GZ",
        "meta_epoch": "2025-12-07T19:25:27.527232",
        "meta_mean_motion": 14.38361799,
        "meta_eccentricity": 0.00657554,
        "meta_inclination": 86.3707,
        "meta_ra_of_asc_node": 104.7333,
        "meta_arg_of_pericenter": 188.9848,
        "meta_mean_anomaly": 171.0179,
        "meta_ephemeris_type": 0,
        "meta_classification_type": "U",
        "meta_norad_cat_id": 34508,
        "meta_element_set_no": 999,
        "meta_rev_at_epoch": 87238,
        "meta_bstar": 0.0028505421,
        "meta_mean_motion_dot": 8.927e-05,
        "meta_mean_motion_ddot": 0,
        "tle_line1": "1 34508U 97051GZ  25341.80934638  .00008927  00000+0  28505-2 0  9995",
        "tle_line2": "2 34508  86.3707 104.7333 0065755 188.9848 171.0179 14.38361799872383"
      },
      "geometry": {
        "type": "Point",
        "coordinates": [
          -77.19811464635063,
          22.489415332941107
        ]
      }
    },
    {
      "type": "Feature",
      "properties": {
        "norad_id": 34521,
        "name": "IRIDIUM 33 DEB",
        "group": "iridium-33-debris",
        "lat": -16.582769203362464,
        "lon": 31.196279461869917,
        "alt_km": 687.5903012503368,
        "timestamp": "2025-12-08T19:31:49.192751+00:00",
        "meta_object_name": "IRIDIUM 33 DEB",
        "meta_object_id": "1997-051HN",
        "meta_epoch": "2025-12-08T04:50:07.608480",
        "meta_mean_motion": 14.63305419,
        "meta_eccentricity": 0.00011357,
        "meta_inclination": 86.38,
        "meta_ra_of_asc_node": 32.5459,
        "meta_arg_of_pericenter": 246.9783,
        "meta_mean_anomaly": 113.1309,
        "meta_ephemeris_type": 0,
        "meta_classification_type": "U",
        "meta_norad_cat_id": 34521,
        "meta_element_set_no": 999,
        "meta_rev_at_epoch": 88406,
        "meta_bstar": 0.0012081732,
        "meta_mean_motion_dot": 6.254e-05,
        "meta_mean_motion_ddot": 0,
        "tle_line1": "1 34521U 97051HN  25342.20147695  .00006254  00000+0  12082-2 0  9998",
        "tle_line2": "2 34521  86.3800  32.5459 0001135 246.9783 113.1309 14.63305419884069"
      },
      "geometry": {
        "type": "Point",
        "coordinates": [
          31.196279461869917,
          -16.582769203362464
        ]
      }
    },
    {
      "type": "Feature",
      "properties": {
        "norad_id": 34525,
        "name": "IRIDIUM 33 DEB",
        "group": "iridium-33-debris",
        "lat": 86.24091189136034,
        "lon": 153.636814336283,
        "alt_km": 736.8794415755701,
        "timestamp": "2025-12-08T19:31:49.192760+00:00",
        "meta_object_name": "IRIDIUM 33 DEB",
        "meta_object_id": "1997-051HS",
        "meta_epoch": "2025-12-08T04:25:55.398144",
        "meta_mean_motion": 14.42888438,
        "meta_eccentricity": 0.00066276,
        "meta_inclination": 86.373,
        "meta_ra_of_asc_node": 48.7879,
        "meta_arg_of_pericenter": 105.7109,
        "meta_mean_anomaly": 319.5931,
        "meta_ephemeris_type": 0,
        "meta_classification_type": "U",
        "meta_norad_cat_id": 34525,
        "meta_element_set_no": 999,
        "meta_rev_at_epoch": 88022,
        "meta_bstar": 0.00055007035,
        "meta_mean_motion_dot": 1.856e-05,
        "meta_mean_motion_ddot": 0,
        "tle_line1": "1 34525U 97051HS  25342.18466896  .00001856  00000+0  55007-3 0  9994",
        "tle_line2": "2 34525  86.3730  48.7879 0006627 105.7109 319.5931 14.42888438880226"
      },
      "geometry": {
        "type": "Point",
        "coordinates": [
          153.636814336283,
          86.24091189136034
        ]
      }
    },
    {
      "type": "Feature",
      "properties": {
        "norad_id": 34529,
        "name": "IRIDIUM 33 DEB",
        "group": "iridium-33-debris",
        "lat": 17.88395322385617,
        "lon": 38.260920126752026,
        "alt_km": 759.9476036305505,
        "timestamp": "2025-12-08T19:31:49.192769+00:00",
        "meta_object_name": "IRIDIUM 33 DEB",
        "meta_object_id": "1997-051HW",
        "meta_epoch": "2025-12-08T04:26:38.874624",
        "meta_mean_motion": 14.40610073,
        "meta_eccentricity": 0.00042345,
        "meta_inclination": 86.3644,
        "meta_ra_of_asc_node": 37.3532,
        "meta_arg_of_pericenter": 192.5106,
        "meta_mean_anomaly": 167.5989,
        "meta_ephemeris_type": 0,
        "meta_classification_type": "U",
        "meta_norad_cat_id": 34529,
        "meta_element_set_no": 999,
        "meta_rev_at_epoch": 88076,
        "meta_bstar": 0.00018799813,
        "meta_mean_motion_dot": 6.19e-06,
        "meta_mean_motion_ddot": 0,
        "tle_line1": "1 34529U 97051HW  25342.18517216  .00000619  00000+0  18800-3 0  9997",
        "tle_line2": "2 34529  86.3644  37.3532 0004234 192.5106 167.5989 14.40610073880766"
      },
      "geometry": {
        "type": "Point",
        "coordinates": [
          38.260920126752026,
          17.88395322385617
        ]
      }
    },
    {
      "type": "Feature",
      "properties": {
        "norad_id": 34538,
        "name": "IRIDIUM 33 DEB",
        "group": "iridium-33-debris",
        "lat": -6.613537795489983,
        "lon": -172.29158937391853,
        "alt_km": 775.3554719976037,
        "timestamp": "2025-12-08T19:31:49.192778+00:00",
        "meta_object_name": "IRIDIUM 33 DEB",
        "meta_object_id": "1997-051JF",
        "meta_epoch": "2025-12-07T06:38:08.723904",
        "meta_mean_motion": 14.42600183,
        "meta_eccentricity": 0.00334838,
        "meta_inclination": 86.2771,
        "meta_ra_of_asc_node": 7.9488,
        "meta_arg_of_pericenter": 346.4929,
        "meta_mean_anomaly": 141.5957,
        "meta_ephemeris_type": 0,
        "meta_classification_type": "U",
        "meta_norad_cat_id": 34538,
        "meta_element_set_no": 999,
        "meta_rev_at_epoch": 87677,
        "meta_bstar": 0.0014728578,
        "meta_mean_motion_dot": 4.942e-05,
        "meta_mean_motion_ddot": 0,
        "tle_line1": "1 34538U 97051JF  25341.27648986  .00004942  00000+0  14729-2 0  9993",
        "tle_line2": "2 34538  86.2771   7.9488 0033483 346.4929 141.5957 14.42600183876776"
      },
      "geometry": {
        "type": "Point",
        "coordinates": [
          -172.29158937391853,
          -6.613537795489983
        ]
      }
    }
  ]
}